ARIANE 44L+ DEB         
1 28577U 92021R   26116.45133183 -.00000228  00000+0  00000+0 0  9998
2 28577   3.3587 121.4456 7000789 257.1201  54.0836  2.23278229176578
BLOCK DM-SL R/B         
1 28627U 05008B   26116.28131900 -.00000213  00000+0  00000+0 0  9993
2 28627   0.7300  29.5871 6556707 204.6333  45.9145  2.13875767165327
INMARSAT 4-F1           
1 28628U 05009A   26116.49489222  .00000023  00000+0  00000+0 0  9999
2 28628   5.1013  42.6929 0002868 349.2000 178.8589  1.00274066 77154
SL-12 R/B(2)            
1 28634U 05010F   26115.79161233  .00000065  00000+0  00000+0 0  9995
2 28634  13.0705  18.8011 0022361 268.1884 265.3807  1.00228882 77175
BREEZE-M R/B            
1 28656U 04008C   26116.27681058  .00000185  00000+0  00000+0 0  9994
2 28656  12.9348 285.3402 6095487   8.8214 358.2428  1.97320296153237
DIRECTV 8               
1 28659U 05019A   26116.52055068  .00000000  00000+0  00000+0 0  9990
2 28659   0.0140 229.3551 0003207 173.3416 240.1704  1.00270938 76552
BREEZE-M R/B            
1 28660U 05019B   26116.41354500 -.00000078  00000+0  00000+0 0  9999
2 28660   9.6249 124.6016 3292334  30.9484 146.0327  1.54369479117749
GALAXY 28 (G-28)        
1 28702U 05022A   26116.41735837 -.00000209  00000+0  00000+0 0  9992
2 28702   3.1678  79.5518 0003127 320.7798 297.2241  1.00276457 51454
SL-12 R/B(2)            
1 28704U 05023H   26115.65835003 -.00000370  00000+0  00000+0 0  9995
2 28704  12.8516  19.2426 0012461 328.9929 202.9565  1.00814993 76676
THAICOM 4               
1 28786U 05028A   26116.52154421 -.00000374  00000+0  00000+0 0  9999
2 28786   0.1129  84.2670 0001983 314.8393 122.6713  1.00270853 51739
ARIANE 5 R/B            
1 28787U 05028B   26116.35290961 -.00000167  00000+0 -90746-4 0  9993
2 28787   6.7944 242.9297 7154103 111.5404 334.3187  2.26684528171467
ANIK F1R                
1 28868U 05036A   26116.47274640 -.00000084  00000+0  00000+0 0  9997
2 28868   4.1826  77.2021 0003413 331.3808 228.8012  1.00272164 45938
SYRACUSE 3A             
1 28885U 05041B   26116.50316654  .00000122  00000+0  00000+0 0  9990
2 28885   4.5125  76.4599 0003445 315.3524  50.0279  1.00270453 75231
ARIANE 5 R/B            
1 28886U 05041C   26115.31546346 -.00000178  00000+0  70428-3 0  9999
2 28886   7.7223 222.0755 7177654 332.9564   6.8300  2.24430545168277
INMARSAT 4-F2           
1 28899U 05044A   26116.20530829 -.00000271  00000+0  00000+0 0  9993
2 28899   5.0300  43.7593 0002735 348.6277  39.1900  1.00272173 75008
METEOSAT-9 (MSG-2)      
1 28912U 05049B   26115.93261958  .00000116  00000+0  00000+0 0  9994
2 28912   9.2466  54.6723 0000497 356.0130 184.6448  1.00274462  6474
ARIANE 5 R/B            
1 28913U 05049C   26116.54024192  .00000023  00000+0  14807-2 0  9990
2 28913   4.5573 335.9406 7153268 297.2761   7.4405  2.24899136167227
